{
  "58105": {
    "noradId": "58105",
    "tle": [
      "1 58105C 23161J   26102.32548611 -.00019475  00000+0 -65656-3 0  1027",
      "2 58105  53.1586 356.1944 0001278  87.6461 270.2351 15.30192723    15"
    ]
  },
  "58106": {
    "noradId": "58106",
    "tle": [
      "1 58106C 23161K   26102.36645833 -.00023235  00000+0 -78327-3 0  1024",
      "2 58106  53.1586 356.0974 0001201  94.2057  88.7772 15.30196193    13"
    ]
  },
  "58107": {
    "noradId": "58107",
    "tle": [
      "1 58107C 23161L   26102.30048611 -.00010901  00000+0 -36742-3 0  1021",
      "2 58107  53.1586 356.4276 0001330  85.7114  64.5867 15.30195481    11"
    ]
  },
  "58108": {
    "noradId": "58108",
    "tle": [
      "1 58108C 23161M   26102.31298611 -.00014314  00000+0 -48259-3 0  1028",
      "2 58108  53.1607 356.5779 0001356  73.5978  29.2885 15.30187372    14"
    ]
  },
  "58109": {
    "noradId": "58109",
    "tle": [
      "1 58109C 23161N   26102.34909722 -.00013957  00000+0 -47052-3 0  1026",
      "2 58109  53.1607   9.1896 0001320  78.1294 331.0716 15.30190527    12"
    ]
  },
  "58110": {
    "noradId": "58110",
    "tle": [
      "1 58110C 23161P   26102.31090278 -.00001943  00000+0 -65502-4 0  1025",
      "2 58110  53.1599   9.1158 0001216  71.9539 254.6981 15.30186399    18"
    ]
  },
  "58111": {
    "noradId": "58111",
    "tle": [
      "1 58111C 23161Q   26102.38659722 -.00022158  00000+0 -74688-3 0  1023",
      "2 58111  53.1599   9.1551 0001206  88.3140  97.7781 15.30198858    12"
    ]
  },
  "58112": {
    "noradId": "58112",
    "tle": [
      "1 58112C 23161R   26102.36159722 -.00013345  00000+0 -44989-3 0  1026",
      "2 58112  53.1600   9.2339 0001222  87.0431 338.7204 15.30189235    15"
    ]
  },
  "58113": {
    "noradId": "58113",
    "tle": [
      "1 58113C 23161S   26102.35812500 -.00017280  00000+0 -58256-3 0  1020",
      "2 58113  53.1590   9.3549 0001331  85.8711 268.3958 15.30192070    11"
    ]
  },
  "58114": {
    "noradId": "58114",
    "tle": [
      "1 58114C 23161T   26102.31715278 -.00004484  00000+0 -15104-3 0  1028",
      "2 58114  53.1604   9.4056 0001367  76.6936 121.5119 15.30211062    10"
    ]
  },
  "58115": {
    "noradId": "58115",
    "tle": [
      "1 58115C 23161U   26102.33312500 -.00005594  00000+0 -18859-3 0  1025",
      "2 58115  53.1602   9.0272 0001306  92.9224 338.7802 15.30186635    17"
    ]
  },
  "58116": {
    "noradId": "58116",
    "tle": [
      "1 58116C 23161V   26102.34631944 -.00013512  00000+0 -45550-3 0  1020",
      "2 58116  53.1592   9.3752 0001144  94.3189 212.3338 15.30190972    18"
    ]
  },
  "58117": {
    "noradId": "58117",
    "tle": [
      "1 58117C 23161W   26102.32826389 -.00004088  00000+0 -13780-3 0  1026",
      "2 58117  53.1586   9.5258 0001208  86.6784  85.5587 15.30186803    15"
    ]
  },
  "58118": {
    "noradId": "58118",
    "tle": [
      "1 58118C 23162A   26102.35881944  .00004775  00000+0  17299-3 0  1029",
      "2 58118  43.0010 301.9466 0001514 266.7439 358.7615 15.27566459    16"
    ]
  },
  "58119": {
    "noradId": "58119",
    "tle": [
      "1 58119C 23162B   26102.33868056 -.00008746  00000+0 -32510-3 0  1024",
      "2 58119  43.0016 302.1669 0001731 253.1242 210.2325 15.26728394    11"
    ]
  },
  "58120": {
    "noradId": "58120",
    "tle": [
      "1 58120C 23162C   26102.37409722  .00014732  00000+0  54740-3 0  1020",
      "2 58120  43.0012 301.8763 0001578 263.0048  80.0356 15.26731180    17"
    ]
  },
  "58121": {
    "noradId": "58121",
    "tle": [
      "1 58121C 23162D   26102.33312500 -.00004216  00000+0 -15661-3 0  1021",
      "2 58121  43.0023 302.3508 0001538 259.8828 111.4190 15.26754174    11"
    ]
  },
  "58122": {
    "noradId": "58122",
    "tle": [
      "1 58122C 23162E   26102.37131944  .00007431  00000+0  27596-3 0  1027",
      "2 58122  43.0013 301.9697 0001477 265.7877  27.9633 15.26754007    15"
    ]
  },
  "58123": {
    "noradId": "58123",
    "tle": [
      "1 58123C 23162F   26102.33104167 -.00025401  00000+0 -92041-3 0  1027",
      "2 58123  43.0021 302.3783 0001362 261.4828  97.9114 15.27577705    18"
    ]
  },
  "58124": {
    "noradId": "58124",
    "tle": [
      "1 58124C 23162G   26102.31090278 -.00018898  00000+0 -68483-3 0  1028",
      "2 58124  43.0028 302.5448 0001398 260.8594 319.3320 15.27571921    12"
    ]
  },
  "58125": {
    "noradId": "58125",
    "tle": [
      "1 58125C 23162H   26102.30326389 -.00048958  00000+0 -17736-2 0  1027",
      "2 58125  43.0010 299.4835 0001650 260.4386 154.7387 15.27594883    10"
    ]
  },
  "58126": {
    "noradId": "58126",
    "tle": [
      "1 58126C 23162J   26102.32965278 -.00086186  00000+0 -31222-2 0  1027",
      "2 58126  43.0002 299.2960 0001179 265.0008 309.6061 15.27615969    16"
    ]
  },
  "58127": {
    "noradId": "58127",
    "tle": [
      "1 58127C 23162K   26102.37270833  .00028521  00000+0  14522-2 0  1020",
      "2 58127  42.9994 301.1513 0015391 260.3132  41.0133 15.15908642    16"
    ]
  },
  "58128": {
    "noradId": "58128",
    "tle": [
      "1 58128C 23162L   26102.32201389 -.00050846  00000+0 -18422-2 0  1026",
      "2 58128  43.0002 299.3558 0001642 261.2125 264.2737 15.27593092    13"
    ]
  },
  "58129": {
    "noradId": "58129",
    "tle": [
      "1 58129C 23162M   26102.37687500 -.00002912  00000+0 -10552-3 0  1023",
      "2 58129  43.0026 302.2237 0001589 258.9731 303.2567 15.27568645    15"
    ]
  },
  "58130": {
    "noradId": "58130",
    "tle": [
      "1 58130C 23162N   26102.39145833  .00020584  00000+0  74590-3 0  1020",
      "2 58130  43.0016 298.8785 0001563 268.6963 314.4985 15.27552699    11"
    ]
  },
  "58131": {
    "noradId": "58131",
    "tle": [
      "1 58131C 23162P   26102.35187500  .00008007  00000+0  29012-3 0  1029",
      "2 58131  43.0033 299.0531 0001713 269.6188 116.8561 15.27561703    10"
    ]
  },
  "58132": {
    "noradId": "58132",
    "tle": [
      "1 58132C 23162Q   26102.38868056  .00016837  00000+0  61037-3 0  1028",
      "2 58132  43.0034 302.2315 0002059 267.9493 323.9436 15.27539947    10"
    ]
  },
  "58133": {
    "noradId": "58133",
    "tle": [
      "1 58133C 23162R   26102.31020833 -.00035413  00000+0 -12828-2 0  1021",
      "2 58133  43.0018 299.3527 0001718 261.1873 227.5843 15.27592657    11"
    ]
  },
  "58134": {
    "noradId": "58134",
    "tle": [
      "1 58134C 23162S   26102.33173611 -.00011077  00000+0 -40133-3 0  1028",
      "2 58134  43.0038 302.6059 0001595 270.7964 346.2965 15.27572154    16"
    ]
  },
  "58135": {
    "noradId": "58135",
    "tle": [
      "1 58135C 23162T   26102.34840278  .00002773  00000+0  10047-3 0  1022",
      "2 58135  43.0023 302.3205 0001456 262.9170 170.8229 15.27571568    11"
    ]
  },
  "58136": {
    "noradId": "58136",
    "tle": [
      "1 58136C 23162U   26102.33659722  .00044433  00000+0  13805-2 0  1027",
      "2 58136  42.9979 302.0735 0008612 293.3119 189.0950 15.32469663    18"
    ]
  },
  "58137": {
    "noradId": "58137",
    "tle": [
      "1 58137C 23162V   26102.36506944 -.00023975  00000+0 -89089-3 0  1026",
      "2 58137  43.0025 302.3789 0002243 264.2331 197.9181 15.26747126    12"
    ]
  },
  "58138": {
    "noradId": "58138",
    "tle": [
      "1 58138C 23162W   26102.34631944 -.00038369  00000+0 -13901-2 0  1026",
      "2 58138  43.0018 302.1076 0001556 261.0431 253.2221 15.27587276    14"
    ]
  },
  "58139": {
    "noradId": "58139",
    "tle": [
      "1 58139C 23162X   26102.31993056 -.00011618  00000+0 -42085-3 0  1023",
      "2 58139  43.0014 302.2017 0001316 278.9649 111.2175 15.27581334    19"
    ]
  },
  "58140": {
    "noradId": "58140",
    "tle": [
      "1 58140C 23162Y   26102.38868056  .00023881  00000+0  86523-3 0  1021",
      "2 58140  43.0013 301.9536 0001500 266.0859  86.0319 15.27556306    18"
    ]
  },
  "58150": {
    "noradId": "58150",
    "tle": [
      "1 58150C 23166A   26102.31437500  .00029067  00000+0  97989-3 0  1025",
      "2 58150  53.1575  63.7307 0001666  86.4166 248.9020 15.30168782    10"
    ]
  },
  "58151": {
    "noradId": "58151",
    "tle": [
      "1 58151C 23166B   26102.38243056 -.00007439  00000+0 -25085-3 0  1023",
      "2 58151  53.1575  63.2545 0001445  87.6327 239.7687 15.30176153    15"
    ]
  },
  "58152": {
    "noradId": "58152",
    "tle": [
      "1 58152C 23166C   26102.30812500  .00032418  00000+0  10928-2 0  1024",
      "2 58152  53.1578  63.7368 0001283  87.1326 225.3765 15.30168486    19"
    ]
  },
  "58153": {
    "noradId": "58153",
    "tle": [
      "1 58153C 23166D   26102.31506944  .00037794  00000+0  12741-2 0  1025",
      "2 58153  53.1586  63.5368 0001365  80.1587   3.6660 15.30165169    16"
    ]
  },
  "58154": {
    "noradId": "58154",
    "tle": [
      "1 58154C 23166E   26102.32756944  .00051529  00000+0  17367-2 0  1025",
      "2 58154  53.1583  63.5374 0001402  86.0609 281.4403 15.30166652    12"
    ]
  },
  "58155": {
    "noradId": "58155",
    "tle": [
      "1 58155C 23166F   26102.36993056  .00051185  00000+0  17266-2 0  1023",
      "2 58155  53.1577  63.3933 0001345  66.4627 261.5320 15.30138821    17"
    ]
  },
  "58156": {
    "noradId": "58156",
    "tle": [
      "1 58156C 23166G   26102.32340278  .00051711  00000+0  17429-2 0  1028",
      "2 58156  53.1574  63.7034 0001426  89.2388 289.9936 15.30164470    14"
    ]
  },
  "58157": {
    "noradId": "58157",
    "tle": [
      "1 58157C 23166H   26102.36437500  .00041090  00000+0  13851-2 0  1022",
      "2 58157  53.1591  63.2557 0001402  82.8319 290.2226 15.30166458    11"
    ]
  },
  "58158": {
    "noradId": "58158",
    "tle": [
      "1 58158C 23166J   26102.38243056  .00041406  00000+0  13954-2 0  1021",
      "2 58158  53.1575  63.3697 0001340  83.3306 296.1562 15.30172936    19"
    ]
  }
}